0 SL-16 DEB
1 39300U 92093JR  13287.99085739  .00000131  00000-0  12474-3 0    19
2 39300 071.1155 048.0970 0106541 000.1577 359.9539 13.94879281545270
0 SL-16 DEB
1 39300U 92093JR  13289.99878234  .00000131  00000-0  12473-3 0    21
2 39300 071.1159 044.0434 0107693 357.2820 002.7530 13.94879986545558
0 SL-16 DEB
1 39300U 92093JR  13294.94688146  .00000142  00000-0  13226-3 0    33
2 39300 071.1176 034.0530 0107655 349.7613 010.1463 13.94882198546241
